[{"CCSDS_OMM_VERS":"3.0","COMMENT":"GENERATED VIA SPACE-TRACK.ORG API","CREATION_DATE":"2026-05-16T17:43:08","ORIGINATOR":"18 SPCS","OBJECT_NAME":"SCOUT A R\/B","OBJECT_ID":"1967-092B","CENTER_NAME":"EARTH","REF_FRAME":"TEME","TIME_SYSTEM":"UTC","MEAN_ELEMENT_THEORY":"SGP4","EPOCH":"2026-05-16T14:45:08.778816","MEAN_MOTION":"13.52390569","ECCENTRICITY":"0.00460460","INCLINATION":"89.2569","RA_OF_ASC_NODE":"11.5353","ARG_OF_PERICENTER":"190.8518","MEAN_ANOMALY":"197.9943","EPHEMERIS_TYPE":"0","CLASSIFICATION_TYPE":"U","NORAD_CAT_ID":"2967","ELEMENT_SET_NO":"999","REV_AT_EPOCH":"89066","BSTAR":"0.00007251930500","MEAN_MOTION_DOT":"0.00000060","MEAN_MOTION_DDOT":"0.0000000000000","SEMIMAJOR_AXIS":"7441.613","PERIOD":"106.478","APOAPSIS":"1097.744","PERIAPSIS":"1029.212","OBJECT_TYPE":"ROCKET BODY","RCS_SIZE":"MEDIUM","COUNTRY_CODE":"US","LAUNCH_DATE":"1967-09-25","SITE":"AFWTR","DECAY_DATE":null,"FILE":"5196581","GP_ID":"323457900","TLE_LINE0":"0 SCOUT A R\/B","TLE_LINE1":"1 02967U 67092B   26136.61468494  .00000060  00000-0  72519-4 0  9992","TLE_LINE2":"2 02967  89.2569  11.5353 0046046 190.8518 197.9943 13.52390569890669"},{"CCSDS_OMM_VERS":"3.0","COMMENT":"GENERATED VIA SPACE-TRACK.ORG API","CREATION_DATE":"2026-05-16T19:46:19","ORIGINATOR":"18 SPCS","OBJECT_NAME":"INTELSAT 2-F4","OBJECT_ID":"1967-094A","CENTER_NAME":"EARTH","REF_FRAME":"TEME","TIME_SYSTEM":"UTC","MEAN_ELEMENT_THEORY":"SGP4","EPOCH":"2026-05-16T11:02:18.663936","MEAN_MOTION":"1.00374855","ECCENTRICITY":"0.00096900","INCLINATION":"3.9976","RA_OF_ASC_NODE":"74.5250","ARG_OF_PERICENTER":"144.6042","MEAN_ANOMALY":"93.2709","EPHEMERIS_TYPE":"0","CLASSIFICATION_TYPE":"U","NORAD_CAT_ID":"2969","ELEMENT_SET_NO":"999","REV_AT_EPOCH":"11499","BSTAR":"0.00000000000000","MEAN_MOTION_DOT":"-0.00000197","MEAN_MOTION_DDOT":"0.0000000000000","SEMIMAJOR_AXIS":"42135.862","PERIOD":"1434.622","APOAPSIS":"35798.557","PERIAPSIS":"35716.898","OBJECT_TYPE":"PAYLOAD","RCS_SIZE":"LARGE","COUNTRY_CODE":"ITSO","LAUNCH_DATE":"1967-09-28","SITE":"AFETR","DECAY_DATE":null,"FILE":"5196696","GP_ID":"323493295","TLE_LINE0":"0 INTELSAT 2-F4","TLE_LINE1":"1  2969U 67094A   26136.45993824 -.00000197  00000-0  00000+0 0  9991","TLE_LINE2":"2  2969   3.9976  74.5250 0009690 144.6042  93.2709  1.00374855114997"},{"CCSDS_OMM_VERS":"3.0","COMMENT":"GENERATED VIA SPACE-TRACK.ORG API","CREATION_DATE":"2026-05-16T19:46:19","ORIGINATOR":"18 SPCS","OBJECT_NAME":"DELTA 1 R\/B(2) *","OBJECT_ID":"1967-094C","CENTER_NAME":"EARTH","REF_FRAME":"TEME","TIME_SYSTEM":"UTC","MEAN_ELEMENT_THEORY":"SGP4","EPOCH":"2026-05-16T10:47:51.291744","MEAN_MOTION":"3.22573987","ECCENTRICITY":"0.65509060","INCLINATION":"28.0323","RA_OF_ASC_NODE":"196.3952","ARG_OF_PERICENTER":"87.8603","MEAN_ANOMALY":"340.1899","EPHEMERIS_TYPE":"0","CLASSIFICATION_TYPE":"U","NORAD_CAT_ID":"2971","ELEMENT_SET_NO":"999","REV_AT_EPOCH":"55880","BSTAR":"0.00141790000000","MEAN_MOTION_DOT":"0.00003995","MEAN_MOTION_DDOT":"0.0000000000000","SEMIMAJOR_AXIS":"19348.573","PERIOD":"446.409","APOAPSIS":"25645.507","PERIAPSIS":"295.370","OBJECT_TYPE":"ROCKET BODY","RCS_SIZE":"LARGE","COUNTRY_CODE":"US","LAUNCH_DATE":"1967-09-28","SITE":"AFETR","DECAY_DATE":null,"FILE":"5196696","GP_ID":"323493795","TLE_LINE0":"0 DELTA 1 R\/B(2) *","TLE_LINE1":"1  2971U 67094C   26136.44989921  .00003995  00000-0  14179-2 0  9999","TLE_LINE2":"2  2971  28.0323 196.3952 6550906  87.8603 340.1899  3.22573987558803"},{"CCSDS_OMM_VERS":"3.0","COMMENT":"GENERATED VIA SPACE-TRACK.ORG API","CREATION_DATE":"2026-05-16T17:43:08","ORIGINATOR":"18 SPCS","OBJECT_NAME":"DELTA 1 DEB","OBJECT_ID":"1967-036C","CENTER_NAME":"EARTH","REF_FRAME":"TEME","TIME_SYSTEM":"UTC","MEAN_ELEMENT_THEORY":"SGP4","EPOCH":"2026-05-16T09:03:43.668000","MEAN_MOTION":"12.82105188","ECCENTRICITY":"0.00986601","INCLINATION":"102.1723","RA_OF_ASC_NODE":"290.7883","ARG_OF_PERICENTER":"182.1679","MEAN_ANOMALY":"206.0428","EPHEMERIS_TYPE":"0","CLASSIFICATION_TYPE":"U","NORAD_CAT_ID":"2976","ELEMENT_SET_NO":"999","REV_AT_EPOCH":"76363","BSTAR":"0.00006419286500","MEAN_MOTION_DOT":"-0.00000036","MEAN_MOTION_DDOT":"0.0000000000000","SEMIMAJOR_AXIS":"7711.154","PERIOD":"112.315","APOAPSIS":"1409.098","PERIAPSIS":"1256.941","OBJECT_TYPE":"DEBRIS","RCS_SIZE":"SMALL","COUNTRY_CODE":"US","LAUNCH_DATE":"1967-04-20","SITE":"AFWTR","DECAY_DATE":null,"FILE":"5196581","GP_ID":"323457401","TLE_LINE0":"0 DELTA 1 DEB","TLE_LINE1":"1 02976U 67036C   26136.37758875 -.00000036  00000-0  64193-4 0  9991","TLE_LINE2":"2 02976 102.1723 290.7883 0098660 182.1679 206.0428 12.82105188763635"},{"CCSDS_OMM_VERS":"3.0","COMMENT":"GENERATED VIA SPACE-TRACK.ORG API","CREATION_DATE":"2026-05-15T02:34:27","ORIGINATOR":"18 SPCS","OBJECT_NAME":"DELTA 1 DEB","OBJECT_ID":"1967-036D","CENTER_NAME":"EARTH","REF_FRAME":"TEME","TIME_SYSTEM":"UTC","MEAN_ELEMENT_THEORY":"SGP4","EPOCH":"2026-05-14T09:41:42.923328","MEAN_MOTION":"12.56865097","ECCENTRICITY":"0.00595221","INCLINATION":"101.6151","RA_OF_ASC_NODE":"98.8253","ARG_OF_PERICENTER":"334.1774","MEAN_ANOMALY":"178.4543","EPHEMERIS_TYPE":"0","CLASSIFICATION_TYPE":"U","NORAD_CAT_ID":"2977","ELEMENT_SET_NO":"999","REV_AT_EPOCH":"70914","BSTAR":"0.00004655621600","MEAN_MOTION_DOT":"-0.00000037","MEAN_MOTION_DDOT":"0.0000000000000","SEMIMAJOR_AXIS":"7814.048","PERIOD":"114.571","APOAPSIS":"1482.424","PERIAPSIS":"1389.402","OBJECT_TYPE":"DEBRIS","RCS_SIZE":"SMALL","COUNTRY_CODE":"US","LAUNCH_DATE":"1967-04-20","SITE":"AFWTR","DECAY_DATE":null,"FILE":"5196476","GP_ID":"323357108","TLE_LINE0":"0 DELTA 1 DEB","TLE_LINE1":"1 02977U 67036D   26134.40396902 -.00000037  00000-0  46556-4 0  9997","TLE_LINE2":"2 02977 101.6151  98.8253 0059522 334.1774 178.4543 12.56865097709141"},{"CCSDS_OMM_VERS":"3.0","COMMENT":"GENERATED VIA SPACE-TRACK.ORG API","CREATION_DATE":"2026-05-16T18:56:32","ORIGINATOR":"18 SPCS","OBJECT_NAME":"OPS 1264 (DMSP 4A F4)","OBJECT_ID":"1967-096A","CENTER_NAME":"EARTH","REF_FRAME":"TEME","TIME_SYSTEM":"UTC","MEAN_ELEMENT_THEORY":"SGP4","EPOCH":"2026-05-16T10:45:56.225088","MEAN_MOTION":"14.62954662","ECCENTRICITY":"0.00927720","INCLINATION":"99.1822","RA_OF_ASC_NODE":"208.7515","ARG_OF_PERICENTER":"207.6575","MEAN_ANOMALY":"151.9672","EPHEMERIS_TYPE":"0","CLASSIFICATION_TYPE":"U","NORAD_CAT_ID":"2980","ELEMENT_SET_NO":"999","REV_AT_EPOCH":"8248","BSTAR":"0.00006820600000","MEAN_MOTION_DOT":"0.00000307","MEAN_MOTION_DDOT":"0.0000000000000","SEMIMAJOR_AXIS":"7061.787","PERIOD":"98.431","APOAPSIS":"749.165","PERIAPSIS":"618.138","OBJECT_TYPE":"PAYLOAD","RCS_SIZE":"MEDIUM","COUNTRY_CODE":"US","LAUNCH_DATE":"1967-10-11","SITE":"AFWTR","DECAY_DATE":null,"FILE":"5196598","GP_ID":"323491432","TLE_LINE0":"0 OPS 1264 (DMSP 4A F4)","TLE_LINE1":"1  2980U 67096A   26136.44856742  .00000307  00000-0  68206-4 0  9991","TLE_LINE2":"2  2980  99.1822 208.7515 0092772 207.6575 151.9672 14.62954662 82487"},{"CCSDS_OMM_VERS":"3.0","COMMENT":"GENERATED VIA SPACE-TRACK.ORG API","CREATION_DATE":"2026-05-16T17:43:08","ORIGINATOR":"18 SPCS","OBJECT_NAME":"THOR BURNER 2 R\/B","OBJECT_ID":"1967-096B","CENTER_NAME":"EARTH","REF_FRAME":"TEME","TIME_SYSTEM":"UTC","MEAN_ELEMENT_THEORY":"SGP4","EPOCH":"2026-05-16T13:59:58.647552","MEAN_MOTION":"14.69487939","ECCENTRICITY":"0.00827600","INCLINATION":"99.1615","RA_OF_ASC_NODE":"168.1723","ARG_OF_PERICENTER":"162.8854","MEAN_ANOMALY":"197.5169","EPHEMERIS_TYPE":"0","CLASSIFICATION_TYPE":"U","NORAD_CAT_ID":"2985","ELEMENT_SET_NO":"999","REV_AT_EPOCH":"8855","BSTAR":"0.00007812791500","MEAN_MOTION_DOT":"0.00000421","MEAN_MOTION_DDOT":"0.0000000000000","SEMIMAJOR_AXIS":"7040.840","PERIOD":"97.993","APOAPSIS":"720.975","PERIAPSIS":"604.435","OBJECT_TYPE":"ROCKET BODY","RCS_SIZE":"LARGE","COUNTRY_CODE":"US","LAUNCH_DATE":"1967-10-11","SITE":"AFWTR","DECAY_DATE":null,"FILE":"5196581","GP_ID":"323457903","TLE_LINE0":"0 THOR BURNER 2 R\/B","TLE_LINE1":"1 02985U 67096B   26136.58331768  .00000421  00000-0  78128-4 0  9998","TLE_LINE2":"2 02985  99.1615 168.1723 0082760 162.8854 197.5169 14.69487939 88556"},{"CCSDS_OMM_VERS":"3.0","COMMENT":"GENERATED VIA SPACE-TRACK.ORG API","CREATION_DATE":"2026-05-16T17:43:08","ORIGINATOR":"18 SPCS","OBJECT_NAME":"SCOUT X-4 DEB","OBJECT_ID":"1964-026E","CENTER_NAME":"EARTH","REF_FRAME":"TEME","TIME_SYSTEM":"UTC","MEAN_ELEMENT_THEORY":"SGP4","EPOCH":"2026-05-16T13:51:09.646272","MEAN_MOTION":"14.06521350","ECCENTRICITY":"0.00448966","INCLINATION":"90.4774","RA_OF_ASC_NODE":"190.7030","ARG_OF_PERICENTER":"328.0522","MEAN_ANOMALY":"31.7939","EPHEMERIS_TYPE":"0","CLASSIFICATION_TYPE":"U","NORAD_CAT_ID":"2986","ELEMENT_SET_NO":"999","REV_AT_EPOCH":"17002","BSTAR":"0.00010288254000","MEAN_MOTION_DOT":"0.00000180","MEAN_MOTION_DDOT":"0.0000000000000","SEMIMAJOR_AXIS":"7249.437","PERIOD":"102.380","APOAPSIS":"903.850","PERIAPSIS":"838.755","OBJECT_TYPE":"DEBRIS","RCS_SIZE":"SMALL","COUNTRY_CODE":"US","LAUNCH_DATE":"1964-06-04","SITE":"AFWTR","DECAY_DATE":null,"FILE":"5196581","GP_ID":"323457403","TLE_LINE0":"0 SCOUT X-4 DEB","TLE_LINE1":"1 02986U 64026E   26136.57719498  .00000180  00000-0  10288-3 0  9992","TLE_LINE2":"2 02986  90.4774 190.7030 0044897 328.0522  31.7939 14.06521350170021"}]